ISS (ZARYA)             
1 25544U 98067A   26201.08882182  .00004577  00000+0  91000-4 0  9994
2 25544  51.6315 137.2714 0006813 316.7062  43.3390 15.49056873576852
